{
  "norad_id": 68120,
  "name": "STARLINK-36868",
  "history": [
    {
      "epoch": "2026-03-28T21:12:16.962624Z",
      "apogee_km": 344.45538413856957,
      "perigee_km": 343.537812902372,
      "latitude_deg": -1.1841268074668123e-05,
      "longitude_deg": -95.36855858567816,
      "height_km": 346.99932255218675,
      "semi_major_axis_km": 6722.1335985204705,
      "eccentricity": 6.825e-05,
      "inclination_deg": 97.2848,
      "raan_deg": 48.9997,
      "arg_perigee_deg": 68.9743,
      "mean_anomaly_deg": 291.1595,
      "mean_motion_rev_day": 15.7522303
    },
    {
      "epoch": "2026-03-29T03:18:11.708064Z",
      "apogee_km": 345.51888020635397,
      "perigee_km": 342.22912802094015,
      "latitude_deg": 9.034203968714006e-05,
      "longitude_deg": 173.16986429496274,
      "height_km": 347.52697587874263,
      "semi_major_axis_km": 6722.011004113647,
      "eccentricity": 0.0002447,
      "inclination_deg": 97.285,
      "raan_deg": 49.2667,
      "arg_perigee_deg": 107.2697,
      "mean_anomaly_deg": 252.8837,
      "mean_motion_rev_day": 15.75266123
    },
    {
      "epoch": "2026-03-30T03:41:44.308320Z",
      "apogee_km": 343.74342862333197,
      "perigee_km": 340.6880874454191,
      "latitude_deg": 5.7666913656868695e-05,
      "longitude_deg": 167.34877484722804,
      "height_km": 346.5270619799855,
      "semi_major_axis_km": 6720.352758034375,
      "eccentricity": 0.00022732,
      "inclination_deg": 97.2839,
      "raan_deg": 50.3332,
      "arg_perigee_deg": 138.504,
      "mean_anomaly_deg": 221.6399,
      "mean_motion_rev_day": 15.75849204
    },
    {
      "epoch": "2026-03-31T20:00:01.999008Z",
      "apogee_km": 369.3992146308319,
      "perigee_km": 366.98537800860777,
      "latitude_deg": 53.417205322595706,
      "longitude_deg": 112.73150914763224,
      "height_km": 376.1407706485522,
      "semi_major_axis_km": 6746.329296319719,
      "eccentricity": 0.0001789,
      "inclination_deg": 97.2855,
      "raan_deg": 52.0822,
      "arg_perigee_deg": 82.3051,
      "mean_anomaly_deg": 43.7399,
      "mean_motion_rev_day": 15.66756331
    }
  ]
}